RESURS P3               
1 41386U 16016A   22115.50212494  .00004916  00000+0  14932-3 0  9995
2 41386  97.2007 199.6958 0003013 187.3453 299.6180 15.34521589342180
COSMOS 2515             
1 41394U 16020A   22115.41557962  .00001572  00000+0  13226-3 0  9991
2 41394  97.8707  71.5415 0032449  14.4235 345.7921 14.99371268332992
BEIDOU IGSO-6           
1 41434U 16021A   22115.54261571 -.00000164  00000+0  00000+0 0  9998
2 41434  58.0285  53.3820 0044784 220.0259 228.9668  1.00292535 22309
SENTINEL-1B             
1 41456U 16025A   22115.48141977 -.00000062  00000+0 -33718-5 0  9992
2 41456  98.1820 123.6079 0001452  79.5914 280.5445 14.59197025319469
E-ST@R-II               
1 41459U 16025D   22115.38164504  .00018089  00000+0  79639-3 0  9991
2 41459  98.1820 276.6657 0149495  89.7097 272.1278 15.12313806329478
AAUSAT 4                
1 41460U 16025E   22115.42924903  .00024810  00000+0  98897-3 0  9991
2 41460  98.1782 282.4630 0130857  67.1199 294.3850 15.17552902329893
MVL-300                 
1 41464U 16026A   22115.50603802  .00006398  00000+0  19781-3 0  9993
2 41464  97.0572 344.9487 0011477  10.4887  83.8231 15.33771267334836
AIST-2D (RS-48)         
1 41465U 16026B   22115.58437806  .00013896  00000+0  34881-3 0  9990
2 41465  97.0636 353.7267 0008644 336.0273 111.2589 15.40072027335390
IRNSS-1G                
1 41469U 16027A   22115.53325234 -.00000349  00000+0  00000+0 0  9993
2 41469   2.0559 163.8087 0006760 278.6930  92.4829  1.00268089 22006
JCSAT-2B                
1 41471U 16028A   22115.56901590 -.00000182  00000+0  00000+0 0  9990
2 41471   0.0147 213.8315 0001897 189.0142 169.5556  1.00268100 21945
YAOGAN-30               
1 41473U 16029A   22115.46888996 -.00001535  00000+0 -21401-3 0  9992
2 41473  98.0630 156.9318 0018805  59.0592 301.2507 14.76153782320335
GSAT0211 (GALILEO 14)   
1 41549U 16030A   22113.64763927 -.00000012  00000+0  00000+0 0  9998
2 41549  55.8061 263.3977 0003254 350.9455   9.0091  1.70475121 36839
GSAT0210 (GALILEO 13)   
1 41550U 16030B   22114.52687325 -.00000021  00000+0  00000+0 0  9995
2 41550  55.8045 263.3751 0001749 313.1633  46.7800  1.70475320 36825
THAICOM 8               
1 41552U 16031A   22115.49351920 -.00000138  00000+0  00000+0 0  9993
2 41552   0.1024  76.4939 0004951 320.8439  72.3144  1.00270847 21544
COSMOS 2516 [GLONASS-M] 
1 41554U 16032A   22115.17671171 -.00000026  00000+0  00000+0 0  9990
2 41554  63.9286 243.2937 0013096 212.2065 200.2716  2.13106222 45963
ZIYUAN 3-2 (ZY 3-2)     
1 41556U 16033A   22115.51583807  .00005829  00000+0  26450-3 0  9995
2 41556  97.5390 184.1605 0004929 112.9034  10.6268 15.21193413327853
NUSAT-1 (FRESCO)        
1 41557U 16033B   22115.53795318  .00015383  00000+0  48058-3 0  9994
2 41557  97.3846 213.2112 0011460 199.7661 216.2771 15.33203190329270
NUSAT-2 (BATATA)        
1 41558U 16033C   22115.51578582  .00014606  00000+0  42847-3 0  9992
2 41558  97.4029 218.5959 0010857 189.2671 299.4421 15.35218644329521
COSMOS 2517 (GEO-IK 2)  
1 41579U 16034A   22115.52734709 -.00000005  00000+0  34275-4 0  9998
2 41579  99.2246 129.6068 0001354  66.7867 293.3430 13.85894055297960
INTELSAT 31 (IS-31)     
1 41581U 16035A   22115.17187257 -.00000167  00000+0  00000+0 0  9996
2 41581   0.0134 238.7414 0001996 336.6741 324.5615  1.00271643 21512
BEIDOU-2 G7             
1 41586U 16037A   22115.49988611 -.00000369  00000+0  00000+0 0  9995
2 41586   1.8624  69.0281 0009264   1.8506  73.1275  1.00271275 21614
ABS-2A (MONGOLSAT-1)    
1 41588U 16038A   22115.49273422 -.00000100  00000+0  00000+0 0  9998
2 41588   0.0165 234.8646 0002054  92.9755 137.7613  1.00268417 21528
EUTELSAT 117 WEST B     
1 41589U 16038B   22115.56602959 -.00000027  00000+0  00000+0 0  9996
2 41589   0.0093 102.0804 0000161 188.6384   9.6119  1.00270329 21498
BRISAT                  
1 41591U 16039A   22115.56406696 -.00000213  00000+0  00000+0 0  9997
2 41591   0.0209 251.7822 0002138 144.0624 171.2641  1.00270781 21444
ECHOSTAR 18             
1 41592U 16039B   22115.47499162 -.00000298  00000+0  00000+0 0  9991
2 41592   0.0172 226.3776 0001398 186.9370 269.7801  1.00268096 21447
CARTOSAT-2C             
1 41599U 16040A   22115.66538492 -.00297894  00000+0 -14758-1 0  9999
2 41599  97.4934 175.7144 0013853  12.2878 149.5248 15.19053075323910
SKYSAT-C1               
1 41601U 16040C   22115.45265843  .00011471  00000+0  29226-3 0  9998
2 41601  97.1572 192.1608 0000797 169.9670 190.1592 15.39703045325850
GHGSAT-D                
1 41602U 16040D   22115.34759284  .00007859  00000+0  30917-3 0  9998
2 41602  97.2132 163.2881 0007234 333.0885  26.9977 15.25884235324567
LAPAN-A3                
1 41603U 16040E   22115.46732120  .00001601  00000+0  76146-4 0  9996
2 41603  97.2128 154.7915 0013078 355.2908 125.9891 15.20498762323982
BIROS                   
1 41604U 16040F   22115.47687299  .00004402  00000+0  18500-3 0  9995
2 41604  97.2170 161.8704 0010576 327.6000  32.4587 15.23875391324391
M3MSAT                  
1 41605U 16040G   22115.37738780  .00004500  00000+0  19290-3 0  9993
2 41605  97.2165 159.8164 0010880 345.3149  14.7770 15.23187121324251
SWAYAM                  
1 41607U 16040J   22115.36178736  .00016930  00000+0  58155-3 0  9996
2 41607  97.2218 167.4881 0009726 315.2556  44.7899 15.30139814324651
FLOCK 2P-9              
1 41610U 16040M   22115.41613190  .00031783  00000+0  10249-2 0  9998
2 41610  97.2368 174.7220 0007171 288.8159  71.2305 15.32075968324923
FLOCK 2P-8              
1 41613U 16040Q   22115.13194497  .00031776  00000+0  10289-2 0  9990
2 41613  97.2418 175.4736 0007341 301.1564  58.8958 15.31942137325049
FLOCK 2P-3              
1 41618U 16040V   22115.55673840  .00030959  00000+0  99935-3 0  9993
2 41618  97.2444 176.3831 0006887 299.2219  60.8334 15.32049978325118
BEESAT-4                
1 41619U 16040W   22115.08659943  .00016179  00000+0  56761-3 0  9998
2 41619  97.2236 167.1846 0008056 310.3697  49.6840 15.29476239312569
MUOS-5                  
1 41622U 16041A   22115.57477198 -.00000182  00000+0  00000+0 0  9996
2 41622   5.7352 301.3364 0195141 233.6369 140.4779  1.00271001 21919
SJ 16-02                
1 41634U 16043A   22115.44933251  .00001245  00000+0  14527-3 0  9997
2 41634  75.0032 246.6540 0006741 107.9199 252.2729 14.86066905315786
TIANTONG-1 1            
1 41725U 16048A   22115.49805453 -.00000337  00000+0  00000+0 0  9999
2 41725   2.3022 355.8348 0004190  53.3250  85.0432  1.00269857 21090
GAOFEN 3                
1 41727U 16049A   22115.46340562  .00000029  00000+0  21960-4 0  9994
2 41727  98.4097 124.5181 0001953  88.2037 271.9380 14.42216675300458
JCSAT-16                
1 41729U 16050A   22115.56924259 -.00000293  00000+0  00000+0 0  9991
2 41729   0.0577  86.8392 0001075  62.7803  16.4837  0.99825329 20894
QSS (MOZI)              
1 41731U 16051A   22115.54342991  .00003685  00000+0  14318-3 0  9998
2 41731  97.3380  27.5023 0014148 128.7042  44.4286 15.26596976316799
USA 270                 
1 41744U 16052A   22108.17088551 -.00000013  00000+0  00000+0 0  9995
2 41744   0.2981  97.4271 0000811 334.5986 258.6727  1.00475911  3480
USA 271                 
1 41745U 16052B   22094.25960826 -.00000357  00000+0  00000+0 0  9994
2 41745   0.2304  98.2006 0000036 202.8696  99.8856  1.00128860  3351
INTELSAT 36 (IS-36)     
1 41747U 16053A   22115.03590895 -.00000041  00000+0  00000+0 0  9992
2 41747   0.0127 316.3122 0001149  37.8111 300.3342  1.00272887 20764
INTELSAT 33E (IS-33E)   
1 41748U 16053B   22115.41800215  .00000033  00000+0  00000+0 0  9995
2 41748   0.0270   5.2620 0001713  34.5724  24.0289  1.00271507 21042
INSAT-3DR               
1 41752U 16054A   22115.46854872 -.00000093  00000+0  00000+0 0  9991
2 41752   0.1550  95.5830 0010480 184.5431 176.0263  1.00270875 20637
PERUSAT 1               
1 41770U 16058A   22115.47328592  .00000292  00000+0  72613-4 0  9995
2 41770  98.2089 189.5910 0001508  82.5897 277.5485 14.58545263298441
SKYSAT-C4               
1 41771U 16058B   22115.48926045  .00013093  00000+0  30335-3 0  9991
2 41771  97.1240 182.3218 0001829 107.5259 252.6189 15.42550919312818
SKYSAT-C5               
1 41772U 16058C   22115.53904134  .00005727  00000+0  22522-3 0  9997
2 41772  97.2702 180.5269 0001859  89.9659 270.1793 15.26040027311708
SKYSAT-C2               
1 41773U 16058D   22115.45811327  .00011203  00000+0  28690-3 0  9998
2 41773  97.1250 182.6869 0001867  31.4928 328.6430 15.39549453312838
SKYSAT-C3               
1 41774U 16058E   22115.14048829  .00013762  00000+0  31547-3 0  9991
2 41774  97.1239 182.3159 0001843 106.5991 253.5459 15.42857662312771
PISAT                   
1 41784U 16059B   22115.09856273  .00000608  00000+0  12466-3 0  9991
2 41784  97.9216 160.5129 0031179 340.7180  19.2841 14.63834580297889
ALSAT 1B                
1 41785U 16059C   22115.40409123  .00000294  00000+0  56948-4 0  9990
2 41785  97.9156 161.2559 0010849  43.8484 316.3587 14.70015019298028
ALSAT 2B                
1 41786U 16059D   22115.44845684  .00000527  00000+0  10287-3 0  9995
2 41786  97.9729 179.8855 0001523 102.8432 257.2948 14.66830063298570
PATHFINDER 1            
1 41787U 16059E   22115.38259195  .00000445  00000+0  93295-4 0  9995
2 41787  97.9190 161.2815 0030203 337.1338  22.8527 14.63967592297976
SCATSAT 1               
1 41790U 16059H   22115.36980372  .00000192  00000+0  60013-4 0  9996
2 41790  98.3258 159.8730 0005550  21.5407 338.6021 14.50865227295374
GSAT-18                 
1 41793U 16060A   22115.50187995 -.00000093  00000+0  00000+0 0  9993
2 41793   0.1270  96.9275 0002213 329.5339  41.6763  1.00271694 20364
SKY MUSTER 2 (NBN1B)    
1 41794U 16060B   22115.37554046 -.00000260  00000+0  00000+0 0  9990
2 41794   0.0142 258.0727 0001539 142.1342  93.1671  1.00272239 20342
